IRIDIUM 57 [-]          
1 25273U 98019B   23244.00988357  .00000362  00000+0  12054-3 0  9996
2 25273  86.3922  59.5964 0002120  90.2919 269.8520 14.34881074331014
IRIDIUM 63 [-]          
1 25286U 98021B   23244.06910263  .00000425  00000+0  14142-3 0  9990
2 25286  86.4043 356.5208 0002042  97.0589 263.0840 14.35390214330107
IRIDIUM 69 [-]          
1 25319U 98026A   23244.07779135  .00000672  00000+0  20935-3 0  9995
2 25319  86.4030  11.7288 0003576  57.2716 302.8827 14.39534984329014
IRIDIUM 71 [-]          
1 25320U 98026B   23243.65700660  .00000543  00000+0  16671-3 0  9996
2 25320  86.4026   6.7529 0004322  90.7983 269.3712 14.39880976329229
IRIDIUM 73 [-]          
1 25344U 98032C   23243.75443385  .00000548  00000+0  13621-3 0  9995
2 25344  86.4453 324.6452 0002749  82.3086 277.8431 14.49999477335832
IRIDIUM 82 [-]          
1 25467U 98051A   23244.20497889  .00012041  00000+0  73116-3 0  9997
2 25467  86.3911  61.9339 0149267 198.5811 160.9941 15.01422938324854
IRIDIUM 2 [-]           
1 25527U 98066A   23243.88158957  .00025514  00000+0  66443-3 0  9997
2 25527  85.5208 125.6499 0006892  31.8339 328.3329 15.38723334362795
